CONNECTA T1.2           
1 55012U 23001D   24109.45827111  .00028182  00000+0  12711-2 0  9998
2 55012  97.4377 169.2973 0011184  48.9206 311.2994 15.20921483 71487
BIRKELAND               
1 55015U 23001G   24109.48743232  .00010775  00000+0  48751-3 0  9998
2 55015  97.4382 169.7939 0010464  44.4180 315.7893 15.21037626 71525
ION SCV-008             
1 55051U 23001AU  24109.19692087  .00009030  00000+0  53234-3 0  9991
2 55051  97.6139 188.0718 0009707 240.2649 119.7615 15.11767219 71217
ION SCV-007             
1 55060U 23001BD  24109.19135665  .00001652  00000+0  25035-3 0  9995
2 55060  98.0032 172.6142 0012808   1.6656 358.4593 14.75433445 69659
NSL-2                   
1 55067U 23001BL  24109.17457033  .00157813  00000+0  28442-2 0  9991
2 55067  97.4275 176.4771 0006015 349.1332  10.9787 15.49188007 71945
TAUSAT-2                
1 55073U 23001BS  24109.16800329  .00035439  00000+0  12634-2 0  9992
2 55073  97.4315 171.9168 0011957   4.7917 355.3435 15.28754774 71652
FLOCK 4Y-23             
1 55080U 23001BZ  24109.15647854  .00022246  00000+0  84145-3 0  9990
2 55080  97.4316 171.5412 0012848  24.3829 335.8015 15.26890648 71633
HUYGENS                 
1 55093U 23001CN  24109.55330727  .00013024  00000+0  58775-3 0  9990
2 55093  97.4327 169.8626 0014219  23.2594 336.9282 15.21034101 71555
BDSAT-2                 
1 55098U 23001CT  24109.15415496  .00039386  00000+0  13603-2 0  9997
2 55098  97.4342 172.2971 0011885  17.2263 342.9378 15.29766579 71664
SHARJAHSAT-1            
1 55104U 23001CZ  24109.56044671  .00015607  00000+0  73778-3 0  9993
2 55104  97.4322 168.6753 0011516  50.6567 309.5687 15.19422666 71472
2023-003A               
1 55133U 23003A   24109.56298222  .00023609  00000+0  99485-3 0  9994
2 55133  97.2279 185.4524 0005930  74.5126 285.6766 15.23315478 70596
2023-007N               
1 55260U 23007N   24109.59248089  .00165834  00000+0  16099-2 0  9994
2 55260  97.3087 191.0122 0003443 123.5804 236.5785 15.65797524 70720
2023-007P               
1 55261U 23007P   24109.57153903  .00072693  00000+0  12902-2 0  9992
2 55261  97.3151 187.8871 0007251 109.8508 250.3525 15.49943312 70519
EOS-7                   
1 55562U 23019A   24109.41519922  .00061720  00000+0  11589-2 0  9998
2 55562  37.1776 255.6751 0003095 328.0645  31.9928 15.47548188 67020
HORUS 1                 
1 55690U 23025A   24109.55465786  .00016617  00000+0  70352-3 0  9999
2 55690  97.4257 185.4899 0003338 211.0197 149.0843 15.23244311 63838
HORUS 2                 
1 55844U 23032A   24109.52290779  .00015795  00000+0  66462-3 0  9996
2 55844  97.4307 185.6291 0001324 172.4906 187.6351 15.23466461 61263
GLOBAL-19               
1 55982U 23041B   24109.45284434  .00035176  00000+0  91148-3 0  9996
2 55982  42.0110 129.4301 0003538  38.1755 321.9334 15.38365118 60289
DEWASAT-2               
1 56180U 23054C   24109.57142731  .00052675  00000+0  13981-2 0  9998
2 56180  97.3749   7.4641 0008446  47.4725 312.7232 15.38084057 56983
KILICSAT                
1 56181U 23054D   24109.62241182  .00039969  00000+0  11802-2 0  9996
2 56181  97.3699   6.7354 0008296  46.5416 313.6516 15.34822798 56962
SSS-2B                  
1 56184U 23054G   24109.58295080  .00046235  00000+0  13117-2 0  9995
2 56184  97.3766   7.2522 0008988  44.8273 315.3695 15.36039898 56974
BRO-9                   
1 56185U 23054H   24109.57108049  .00017784  00000+0  63819-3 0  9995
2 56185  97.3688   5.3033 0009005  39.8474 320.3426 15.28711752 56876
CIRBE                   
1 56188U 23054L   24109.25293163  .00079191  00000+0  17490-2 0  9998
2 56188  97.3679   8.0254 0006877  42.8675 317.3108 15.43552677 57011
ION SCV-010             
1 56192U 23054Q   24109.23629485  .00007072  00000+0  49878-3 0  9996
2 56192  97.4772 359.6715 0011592 328.9000  31.1539 15.05220306 56172
GHOST-1                 
1 56195U 23054T   24109.29229246  .00019412  00000+0  68896-3 0  9998
2 56195  97.3709   5.3306 0009855  28.3720 331.8055 15.29047552 56847
GHOST-2                 
1 56197U 23054V   24109.62055063  .00022222  00000+0  74994-3 0  9990
2 56197  97.3701   6.0818 0010234  26.2065 333.9692 15.30657225 56924
TOMORROW-R1             
1 56199U 23054X   24109.28754370  .00031047  00000+0  96380-3 0  9999
2 56199  97.3722   6.4760 0009752  27.7229 332.4531 15.33277294 56912
FACSAT-2                
1 56205U 23054AD  24109.62389994  .00022600  00000+0  71087-3 0  9993
2 56205  97.3749   7.1967 0012298  13.8286 346.3290 15.32895246 56989
CONNECTA T2.1           
1 56210U 23054AJ  24109.60875761  .00038269  00000+0  12411-2 0  9992
2 56210  97.3673   6.3931 0011439  11.7341 348.4165 15.31814331 56954
INSPIRE-SAT 7           
1 56211U 23054AK  24109.24279507  .00081941  00000+0  17220-2 0  9997
2 56211  97.3729   9.0933 0008706  18.8707 341.2862 15.44998975 57076
ROSEYCUBESAT-1          
1 56212U 23054AL  24109.56944044  .00092086  00000+0  17776-2 0  9996
2 56212  97.3729   9.9008 0008027  17.8921 342.2610 15.47446845 57150
LS3C                    
1 56214U 23054AN  24109.25202930  .00064229  00000+0  14573-2 0  9995
2 56214  97.3686   8.5455 0009389  10.6272 349.5172 15.42791507 57052
IRIS-C                  
1 56221U 23054AV  24109.26170148  .00069641  00000+0  16975-2 0  9990
2 56221  97.3695   7.4897 0008520  21.2675 338.8924 15.40614332 56973
DISCO-1                 
1 56222U 23054AW  24109.27178788  .00042675  00000+0  12416-2 0  9994
2 56222  97.3677   6.5003 0010589  25.9053 334.2718 15.35252550 56911
VIREO                   
1 56223U 23054AX  24109.57325716  .00118513  00000+0  21859-2 0  9999
2 56223  97.3649   9.2062 0005797  43.5114 316.6593 15.48674244 57137
REVELA                  
1 56224U 23054AY  24109.23756782  .00045066  00000+0  12356-2 0  9998
2 56224  97.3697   7.2154 0006553  27.2790 332.8798 15.37131096 56958
TELEOS-2                
1 56310U 23057C   24109.47177297  .00017558  00000+0  14443-2 0  9995
2 56310   9.9878 194.2755 0000677 311.7698  48.2458 14.96429579 54316
SNIPE 4                 
1 56744U 23072B   24109.55712133  .00013787  00000+0  79894-3 0  9998
2 56744  97.5522 296.8333 0011313 230.4971 129.5260 15.12258885 49651
SNIPE 2                 
1 56745U 23072C   24109.41894050  .00017627  00000+0  99714-3 0  9993
2 56745  97.5611 296.9970 0004758 270.1879  89.8806 15.13113983 49645
2023-072G               
1 56749U 23072G   24109.55930582  .00016708  00000+0  92620-3 0  9991
2 56749  97.5320 296.4900 0007870 257.2832 102.7520 15.13834687 49680
OTTER PUP               
1 56933U 23084B   24109.31330380  .00021692  00000+0  96658-3 0  9996
2 56933  97.5294 228.2506 0007626 193.0858 167.0180 15.21425467 47050
GEISAT PRECURSOR        
1 56934U 23084C   24109.57059048  .00015649  00000+0  77275-3 0  9993
2 56934  97.5340 227.8121 0007887 231.8192 128.2332 15.17938540 47034
EIVE                    
1 56937U 23084F   24109.56355964  .00035291  00000+0  15102-2 0  9996
2 56937  97.5290 228.5893 0007139 223.6348 136.4325 15.22703216 47092
LAYAN-23                
1 56939U 23084H   24109.60585623  .00036350  00000+0  14978-2 0  9997
2 56939  97.5288 229.0053 0007200 215.0823 144.9940 15.23976565 47128
AFRL-XVI                
1 56942U 23084L   24109.31484868  .00039062  00000+0  16256-2 0  9992
2 56942  97.5329 228.7740 0008484 219.9810 140.0803 15.23614994 47075
BLACKJACK ACES-3        
1 56950U 23084U   24109.31869844  .00019922  00000+0  89478-3 0  9992
2 56950  97.5343 228.2769 0010283 210.6098 149.4538 15.21149235 47046
QPS-SAR-6 (AMATERU-III) 
1 56951U 23084V   24109.53448033  .00053630  00000+0  19114-2 0  9993
2 56951  97.5302 229.9055 0008806 206.5616 153.5174 15.28692648 47170
BLACKJACK ACES-4        
1 56952U 23084W   24109.33917655  .00024843  00000+0  11233-2 0  9991
2 56952  97.5328 228.3702 0010812 210.2810 149.7802 15.20868072 47059
BLACKJACK ACES-2        
1 56955U 23084Z   24109.31353192  .00024864  00000+0  11152-2 0  9995
2 56955  97.5330 228.2553 0010709 214.1748 145.8799 15.21146151 47045
BLACKJACK ACES-1        
1 56956U 23084AA  24109.33710185  .00025490  00000+0  11509-2 0  9999
2 56956  97.5325 228.3780 0010952 216.1329 143.9168 15.20910985 47053
ION SCV-011             
1 56957U 23084AB  24109.29023620  .00002907  00000+0  43127-3 0  9996
2 56957  98.0490 228.9113 0072404 135.6410 225.0630 14.74071716 45923
GHOST-3                 
1 56958U 23084AC  24109.29999089  .00016286  00000+0  78723-3 0  9993
2 56958  97.5340 228.0010 0011591 217.7140 142.3283 15.18641520 47024
TOMORROW-R2             
1 56962U 23084AG  24109.34430961  .00022680  00000+0  10433-2 0  9991
2 56962  97.5327 228.3646 0011806 214.0004 146.0476 15.20284260 47055
AFR-1                   
1 56964U 23084AJ  24109.60260339  .00009802  00000+0  50463-3 0  9991
2 56964  97.5363 227.9596 0012982 216.9424 143.0916 15.16547787 47045
DROID.001               
1 56965U 23084AK  24109.30046620  .00022767  00000+0  10341-2 0  9999
2 56965  97.5310 228.3556 0011828 210.6852 149.3692 15.20720111 47053
MUSAT1                  
1 56967U 23084AM  24109.26147095  .00053965  00000+0  18890-2 0  9995
2 56967  97.5273 229.8834 0010781 204.5538 155.5190 15.29261964 47156
AII-DELTA               
1 56987U 23084BH  24109.61065960  .00044469  00000+0  16482-2 0  9990
2 56987  97.5242 229.8973 0012165 196.4747 163.6099 15.27419364 47196
SPEI SATELLES           
1 56991U 23084BT  24109.27804959  .00038150  00000+0  15414-2 0  9990
2 56991  97.5278 229.0507 0010251 199.4057 160.6791 15.24601868 47102
URESAT-1                
1 56992U 23084BU  24109.58951785  .00040333  00000+0  16647-2 0  9990
2 56992  97.5241 228.5127 0013873 230.5838 129.4171 15.23831372 47099
MRC-100                 
1 56993U 23084BV  24109.30054975  .00047983  00000+0  19008-2 0  9998
2 56993  97.5244 228.4593 0013799 231.6864 128.3133 15.25167586 47072
